start=new Date('2021-12-19T00:00:00.000Z').valueOf();
sats=[{"INCLINATION":"53.0560","DECAY_DATE":null,"COUNTRY_CODE":"US","MEAN_MOTION_DDOT":"0.0000000000000","ARG_OF_PERICENTER":"82.9721","PERIOD":"95.592","MEAN_ELEMENT_THEORY":"SGP4","ECCENTRICITY":"0.00010500","APOAPSIS":"547.943","EPHEMERIS_TYPE":"0","MEAN_MOTION_DOT":"0.00001465","REV_AT_EPOCH":"3534","EPOCH":"2021-12-18T17:47:48.871104","REF_FRAME":"TEME","MEAN_MOTION":"15.06399212","CENTER_NAME":"EARTH","SITE":"AFETR","LAUNCH_DATE":"2021-05-04","RCS_SIZE":"MEDIUM","ELEMENT_SET_NO":"999","GP_ID":"191946890","BSTAR":"0.00011721000000","FILE":"3243791","OBJECT_ID":"2021-038P","RA_OF_ASC_NODE":"73.6833","NORAD_CAT_ID":"48366","MEAN_ANOMALY":"277.1387","TLE_LINE1":"1 48366U 21038P   21352.74153786  .00001465  00000-0  11721-3 0  9996","OBJECT_NAME":"STARLINK-2631","CLASSIFICATION_TYPE":"U","OBJECT_TYPE":"PAYLOAD","SEMIMAJOR_AXIS":"6925.351","TIME_SYSTEM":"UTC","PERIAPSIS":"546.489","TLE_LINE2":"2 48366  53.0560  73.6833 0001050  82.9721 277.1387 15.06399212 35341"},{"TLE_LINE2":"2 48367  53.0559  74.6102 0001296  98.9517 261.1619 15.06401525 34725","PERIAPSIS":"546.311","TIME_SYSTEM":"UTC","SEMIMAJOR_AXIS":"6925.344","OBJECT_TYPE":"PAYLOAD","CLASSIFICATION_TYPE":"U","OBJECT_NAME":"STARLINK-2643","TLE_LINE1":"1 48367U 21038Q   21352.53881153 -.00000109  00000-0  11605-4 0  9997","MEAN_ANOMALY":"261.1619","NORAD_CAT_ID":"48367","RA_OF_ASC_NODE":"74.6102","OBJECT_ID":"2021-038Q","FILE":"3243681","BSTAR":"0.00001160500000","GP_ID":"191941721","ELEMENT_SET_NO":"999","RCS_SIZE":"LARGE","LAUNCH_DATE":"2021-05-04","SITE":"AFETR","CENTER_NAME":"EARTH","MEAN_MOTION":"15.06401525","REV_AT_EPOCH":"3472","EPOCH":"2021-12-18T12:55:53.316192","REF_FRAME":"TEME","MEAN_MOTION_DOT":"-0.00000109","EPHEMERIS_TYPE":"0","APOAPSIS":"548.106","ECCENTRICITY":"0.00012960","MEAN_ELEMENT_THEORY":"SGP4","PERIOD":"95.592","ARG_OF_PERICENTER":"98.9517","MEAN_MOTION_DDOT":"0.0000000000000","COUNTRY_CODE":"US","DECAY_DATE":null,"INCLINATION":"53.0559"},{"MEAN_MOTION_DDOT":"0.0000000000000","COUNTRY_CODE":"US","INCLINATION":"53.0557","DECAY_DATE":null,"MEAN_MOTION_DOT":"0.00001644","EPHEMERIS_TYPE":"0","APOAPSIS":"548.019","MEAN_ELEMENT_THEORY":"SGP4","PERIOD":"95.592","ARG_OF_PERICENTER":"90.0834","ECCENTRICITY":"0.00011860","RCS_SIZE":"LARGE","ELEMENT_SET_NO":"999","LAUNCH_DATE":"2021-05-04","GP_ID":"191945492","CENTER_NAME":"EARTH","MEAN_MOTION":"15.06405093","REV_AT_EPOCH":"3534","EPOCH":"2021-12-18T16:32:08.484576","REF_FRAME":"TEME","SITE":"AFETR","TLE_LINE1":"1 48368U 21038R   21352.68898709  .00001644  00000-0  12923-3 0  9996","OBJECT_NAME":"STARLINK-2623","PERIAPSIS":"546.377","TLE_LINE2":"2 48368  53.0557  73.9160 0001186  90.0834 270.0291 15.06405093 35341","TIME_SYSTEM":"UTC","OBJECT_TYPE":"PAYLOAD","SEMIMAJOR_AXIS":"6925.333","CLASSIFICATION_TYPE":"U","FILE":"3243725","BSTAR":"0.00012923000000","OBJECT_ID":"2021-038R","MEAN_ANOMALY":"270.0291","NORAD_CAT_ID":"48368","RA_OF_ASC_NODE":"73.9160"},{"MEAN_MOTION":"15.06401402","EPOCH":"2021-12-18T17:37:11.958816","REV_AT_EPOCH":"3534","REF_FRAME":"TEME","CENTER_NAME":"EARTH","SITE":"AFETR","RCS_SIZE":"LARGE","ELEMENT_SET_NO":"999","LAUNCH_DATE":"2021-05-04","GP_ID":"191946923","FILE":"3243793","BSTAR":"-0.00001138400000","OBJECT_ID":"2021-038S","RA_OF_ASC_NODE":"73.7158","NORAD_CAT_ID":"48369","MEAN_ANOMALY":"271.1439","TLE_LINE1":"1 48369U 21038S   21352.73416619 -.00000451  00000-0 -11384-4 0  9997","OBJECT_NAME":"STARLINK-2641","OBJECT_TYPE":"PAYLOAD","CLASSIFICATION_TYPE":"U","SEMIMAJOR_AXIS":"6925.344","PERIAPSIS":"546.367","TLE_LINE2":"2 48369  53.0546  73.7158 0001216  88.9689 271.1439 15.06401402 35349","TIME_SYSTEM":"UTC","INCLINATION":"53.0546","DECAY_DATE":null,"COUNTRY_CODE":"US","MEAN_MOTION_DDOT":"0.0000000000000","ARG_OF_PERICENTER":"88.9689","MEAN_ELEMENT_THEORY":"SGP4","PERIOD":"95.592","ECCENTRICITY":"0.00012160","APOAPSIS":"548.051","MEAN_MOTION_DOT":"-0.00000451","EPHEMERIS_TYPE":"0"},{"CENTER_NAME":"EARTH","MEAN_MOTION":"15.06401390","REV_AT_EPOCH":"3531","EPOCH":"2021-12-18T12:45:15.932160","REF_FRAME":"TEME","SITE":"AFETR","RCS_SIZE":"LARGE","ELEMENT_SET_NO":"999","LAUNCH_DATE":"2021-05-04","GP_ID":"191946925","FILE":"3243793","BSTAR":"0.00008979800000","OBJECT_ID":"2021-038T","MEAN_ANOMALY":"273.4080","NORAD_CAT_ID":"48370","RA_OF_ASC_NODE":"74.6278","OBJECT_NAME":"STARLINK-2621","TLE_LINE1":"1 48370U 21038T   21352.53143440  .00001056  00000-0  89798-4 0  9990","TLE_LINE2":"2 48370  53.0560  74.6278 0001254  86.7053 273.4080 15.06401390 35313","PERIAPSIS":"546.341","TIME_SYSTEM":"UTC","OBJECT_TYPE":"PAYLOAD","CLASSIFICATION_TYPE":"U","SEMIMAJOR_AXIS":"6925.344","INCLINATION":"53.0560","DECAY_DATE":null,"MEAN_MOTION_DDOT":"0.0000000000000","COUNTRY_CODE":"US","MEAN_ELEMENT_THEORY":"SGP4","PERIOD":"95.592","ARG_OF_PERICENTER":"86.7053","ECCENTRICITY":"0.00012540","MEAN_MOTION_DOT":"0.00001056","EPHEMERIS_TYPE":"0","APOAPSIS":"548.078"},{"MEAN_MOTION_DDOT":"0.0000000000000","COUNTRY_CODE":"US","INCLINATION":"53.0571","DECAY_DATE":null,"MEAN_MOTION_DOT":"-0.00001343","EPHEMERIS_TYPE":"0","APOAPSIS":"547.977","MEAN_ELEMENT_THEORY":"SGP4","PERIOD":"95.593","ARG_OF_PERICENTER":"76.7661","ECCENTRICITY":"0.00010650","ELEMENT_SET_NO":"999","RCS_SIZE":"LARGE","LAUNCH_DATE":"2021-05-04","GP_ID":"191942221","CENTER_NAME":"EARTH","MEAN_MOTION":"15.06391451","REF_FRAME":"TEME","EPOCH":"2021-12-18T12:39:58.338720","REV_AT_EPOCH":"3472","SITE":"AFETR","OBJECT_NAME":"STARLINK-2589","TLE_LINE1":"1 48371U 21038U   21352.52775855 -.00001343  00000-0 -71309-4 0  9991","PERIAPSIS":"546.502","TLE_LINE2":"2 48371  53.0571  74.6543 0001065  76.7661 283.3447 15.06391451 34722","TIME_SYSTEM":"UTC","OBJECT_TYPE":"PAYLOAD","CLASSIFICATION_TYPE":"U","SEMIMAJOR_AXIS":"6925.375","OBJECT_ID":"2021-038U","FILE":"3243681","BSTAR":"-0.00007130900000","MEAN_ANOMALY":"283.3447","NORAD_CAT_ID":"48371","RA_OF_ASC_NODE":"74.6543"},{"SITE":"AFETR","CENTER_NAME":"EARTH","MEAN_MOTION":"15.06397904","REF_FRAME":"TEME","EPOCH":"2021-12-18T17:21:16.324704","REV_AT_EPOCH":"3534","GP_ID":"191947454","RCS_SIZE":"LARGE","ELEMENT_SET_NO":"999","LAUNCH_DATE":"2021-05-04","MEAN_ANOMALY":"270.7108","NORAD_CAT_ID":"48372","RA_OF_ASC_NODE":"73.7742","BSTAR":"0.00008224600000","FILE":"3243795","OBJECT_ID":"2021-038V","PERIAPSIS":"546.367","TLE_LINE2":"2 48372  53.0569  73.7742 0001232  89.4022 270.7108 15.06397904 35341","TIME_SYSTEM":"UTC","OBJECT_TYPE":"PAYLOAD","SEMIMAJOR_AXIS":"6925.355","CLASSIFICATION_TYPE":"U","TLE_LINE1":"1 48372U 21038V   21352.72310561  .00000944  00000-0  82246-4 0  9999","OBJECT_NAME":"STARLINK-2572","DECAY_DATE":null,"INCLINATION":"53.0569","MEAN_MOTION_DDOT":"0.0000000000000","COUNTRY_CODE":"US","ECCENTRICITY":"0.00012320","MEAN_ELEMENT_THEORY":"SGP4","PERIOD":"95.592","ARG_OF_PERICENTER":"89.4022","MEAN_MOTION_DOT":"0.00000944","EPHEMERIS_TYPE":"0","APOAPSIS":"548.073"},{"MEAN_ANOMALY":"265.6989","NORAD_CAT_ID":"48373","RA_OF_ASC_NODE":"74.6972","FILE":"3243681","OBJECT_ID":"2021-038W","BSTAR":"-0.00002525600000","TIME_SYSTEM":"UTC","PERIAPSIS":"546.317","TLE_LINE2":"2 48373  53.0561  74.6972 0001287  94.4147 265.6989 15.06401667 34726","OBJECT_TYPE":"PAYLOAD","CLASSIFICATION_TYPE":"U","SEMIMAJOR_AXIS":"6925.343","TLE_LINE1":"1 48373U 21038W   21352.52037983 -.00000658  00000-0 -25256-4 0  9994","OBJECT_NAME":"STARLINK-2609","SITE":"AFETR","CENTER_NAME":"EARTH","EPOCH":"2021-12-18T12:29:20.817312","REV_AT_EPOCH":"3472","REF_FRAME":"TEME","MEAN_MOTION":"15.06401667","GP_ID":"191942724","LAUNCH_DATE":"2021-05-04","RCS_SIZE":"LARGE","ELEMENT_SET_NO":"999","ECCENTRICITY":"0.00012870","PERIOD":"95.592","MEAN_ELEMENT_THEORY":"SGP4","ARG_OF_PERICENTER":"94.4147","EPHEMERIS_TYPE":"0","MEAN_MOTION_DOT":"-0.00000658","APOAPSIS":"548.100","DECAY_DATE":null,"INCLINATION":"53.0561","MEAN_MOTION_DDOT":"0.0000000000000","COUNTRY_CODE":"US"},{"SITE":"AFETR","EPOCH":"2021-12-18T12:24:02.821248","REF_FRAME":"TEME","REV_AT_EPOCH":"3472","MEAN_MOTION":"15.06395848","CENTER_NAME":"EARTH","GP_ID":"191941472","LAUNCH_DATE":"2021-05-04","RCS_SIZE":"LARGE","ELEMENT_SET_NO":"999","RA_OF_ASC_NODE":"74.6980","NORAD_CAT_ID":"48374","MEAN_ANOMALY":"279.5323","FILE":"3243681","OBJECT_ID":"2021-038X","BSTAR":"-0.00003214900000","SEMIMAJOR_AXIS":"6925.361","OBJECT_TYPE":"PAYLOAD","CLASSIFICATION_TYPE":"U","TIME_SYSTEM":"UTC","TLE_LINE2":"2 48374  53.0566  74.6980 0001289  80.5812 279.5323 15.06395848 34727","PERIAPSIS":"546.334","TLE_LINE1":"1 48374U 21038X   21352.51669932 -.00000760  00000-0 -32149-4 0  9992","OBJECT_NAME":"STARLINK-2604","DECAY_DATE":null,"INCLINATION":"53.0566","COUNTRY_CODE":"US","MEAN_MOTION_DDOT":"0.0000000000000","ECCENTRICITY":"0.00012890","ARG_OF_PERICENTER":"80.5812","PERIOD":"95.592","MEAN_ELEMENT_THEORY":"SGP4","APOAPSIS":"548.119","EPHEMERIS_TYPE":"0","MEAN_MOTION_DOT":"-0.00000760"},{"ECCENTRICITY":"0.00009780","PERIOD":"95.592","MEAN_ELEMENT_THEORY":"SGP4","ARG_OF_PERICENTER":"91.0301","EPHEMERIS_TYPE":"0","MEAN_MOTION_DOT":"-0.00000606","APOAPSIS":"547.884","DECAY_DATE":null,"INCLINATION":"53.0572","MEAN_MOTION_DDOT":"0.0000000000000","COUNTRY_CODE":"US","MEAN_ANOMALY":"269.0800","NORAD_CAT_ID":"48375","RA_OF_ASC_NODE":"74.7250","OBJECT_ID":"2021-038Y","FILE":"3243681","BSTAR":"-0.00002179500000","TIME_SYSTEM":"UTC","TLE_LINE2":"2 48375  53.0572  74.7250 0000978  91.0301 269.0800 15.06402210 34726","PERIAPSIS":"546.529","CLASSIFICATION_TYPE":"U","OBJECT_TYPE":"PAYLOAD","SEMIMAJOR_AXIS":"6925.342","OBJECT_NAME":"STARLINK-2603","TLE_LINE1":"1 48375U 21038Y   21352.51300885 -.00000606  00000-0 -21795-4 0  9996","SITE":"AFETR","CENTER_NAME":"EARTH","REF_FRAME":"TEME","EPOCH":"2021-12-18T12:18:43.964640","REV_AT_EPOCH":"3472","MEAN_MOTION":"15.06402210","GP_ID":"191941722","LAUNCH_DATE":"2021-05-04","RCS_SIZE":"LARGE","ELEMENT_SET_NO":"999"}];
